NORAD_CAT_ID,OBJECT_NAME,OBJECT_TYPE,EPOCH,MEAN_MOTION,ECCENTRICITY,INCLINATION,RA_OF_ASC_NODE,ARG_OF_PERICENTER,MEAN_ANOMALY,BSTAR,MEAN_MOTION_DOT,MEAN_MOTION_DDOT,TLE_LINE0,TLE_LINE1,TLE_LINE2,SEMIMAJOR_AXIS,PERIOD,APOGEE,PERIGEE,DECAYED
51775.0,STARLINK-3620,PAYLOAD,2023-03-30 14:18:13,15.08844494,0.0001446,53.2157,125.4007,115.7114,244.4028,0.00084689,0.00013218,0.0,0 STARLINK-3620,1 51775U 22017H   23089.59599367  .00013218  00000-0  84689-3 0  9995,2 51775  53.2157 125.4007 0001446 115.7114 244.4028 15.08844494 60304,6917.867,95.437,540.732,538.731,0.0
51775.0,STARLINK-3620,PAYLOAD,2023-03-31 03:01:19,15.08842679,0.0001791,53.2155,123.0196,113.4167,246.7014,0.0011343,0.00017812,0.0,0 STARLINK-3620,1 51775U 22017H   23090.12591996  .00017812  00000-0  11343-2 0  9996,2 51775  53.2155 123.0196 0001791 113.4167 246.7014 15.08842679 61833,6917.872,95.437,540.976,538.498,0.0
51775.0,STARLINK-3620,PAYLOAD,2023-03-31 18:55:11,15.08843212,0.0001762,53.215,120.0509,97.9365,262.1827,0.0011097,0.00017419,0.0,0 STARLINK-3620,1 51775U 22017H   23090.78832606  .00017419  00000-0  11097-2 0  9993,2 51775  53.2150 120.0509 0001762  97.9365 262.1827 15.08843212 61936,6917.871,95.437,540.954,538.517,0.0
51775.0,STARLINK-3620,PAYLOAD,2023-04-01 10:49:02,15.08836773,0.0001387,53.2144,117.0764,98.6156,261.4994,0.00066897,0.00010374,0.0,0 STARLINK-3620,1 51775U 22017H   23091.45072750  .00010374  00000-0  66897-3 0  9996,2 51775  53.2144 117.0764 0001387  98.6156 261.4994 15.08836773 62030,6917.89,95.438,540.715,538.796,0.0
51775.0,STARLINK-3620,PAYLOAD,2023-04-01 18:45:58,15.0883649,0.0001464,53.2147,115.5889,98.4086,261.7072,0.00032618,4.907e-05,0.0,0 STARLINK-3620,1 51775U 22017H   23091.78192877  .00004907  00000-0  32618-3 0  9994,2 51775  53.2147 115.5889 0001464  98.4086 261.7072 15.08836490 60630,6917.891,95.438,540.769,538.743,0.0
51775.0,STARLINK-3620,PAYLOAD,2023-04-02 10:39:49,15.08846329,0.0001377,53.2146,112.6148,98.2143,261.9005,0.00035035,5.293e-05,0.0,0 STARLINK-3620,1 51775U 22017H   23092.44432635  .00005293  00000-0  35035-3 0  9992,2 51775  53.2146 112.6148 0001377  98.2143 261.9005 15.08846329 62182,6917.861,95.437,540.679,538.773,0.0
51775.0,STARLINK-3620,PAYLOAD,2023-04-03 05:44:27,15.08844733,0.0001345,53.2144,109.0459,98.0255,262.089,0.00023615,3.473e-05,0.0,0 STARLINK-3620,1 51775U 22017H   23093.23920702  .00003473  00000-0  23615-3 0  9996,2 51775  53.2144 109.0459 0001345  98.0255 262.0890 15.08844733 62307,6917.866,95.437,540.661,538.8,0.0
51775.0,STARLINK-3620,PAYLOAD,2023-04-03 07:19:50,15.08845457,0.0001309,53.2143,108.7484,98.1444,261.9697,0.00021183,3.085e-05,0.0,0 STARLINK-3620,1 51775U 22017H   23093.30544627  .00003085  00000-0  21183-3 0  9999,2 51775  53.2143 108.7484 0001309  98.1444 261.9697 15.08845457 60867,6917.864,95.437,540.634,538.823,0.0
51775.0,STARLINK-3620,PAYLOAD,2023-04-03 18:27:35,15.08791003,0.0001606,53.2142,106.6678,80.7852,279.3321,-0.00065901,-0.00010747,0.0,0 STARLINK-3620,1 51775U 22017H   23093.76915851 -.00010747  00000-0 -65901-3 0  9991,2 51775  53.2142 106.6678 0001606  80.7852 279.3321 15.08791003 62381,6918.03,95.441,541.006,538.784,0.0
51775.0,STARLINK-3620,PAYLOAD,2023-04-04 05:35:16,15.08838232,0.0002413,53.2157,104.5882,135.243,224.8757,0.00031279,4.693e-05,0.0,0 STARLINK-3620,1 51775U 22017H   23094.23282510  .00004693  00000-0  31279-3 0  9995,2 51775  53.2157 104.5882 0002413 135.2430 224.8757 15.08838232 62458,6917.886,95.438,541.42,538.082,0.0
51775.0,STARLINK-3620,PAYLOAD,2023-04-04 11:56:48,15.08841033,0.0001343,53.2147,103.3968,94.1671,265.9475,0.00025714,3.807e-05,0.0,0 STARLINK-3620,1 51775U 22017H   23094.49778676  .00003807  00000-0  25714-3 0  9999,2 51775  53.2147 103.3968 0001343  94.1671 265.9475 15.08841033 61040,6917.877,95.437,540.671,538.813,0.0
51775.0,STARLINK-3620,PAYLOAD,2023-04-05 05:26:02,15.08860016,0.0001483,53.2147,100.1245,105.3974,254.7182,0.00077417,0.00012061,0.0,0 STARLINK-3620,1 51775U 22017H   23095.22642314  .00012061  00000-0  77417-3 0  9999,2 51775  53.2147 100.1245 0001483 105.3974 254.7182 15.08860016 61154,6917.819,95.436,540.71,538.658,0.0
51775.0,STARLINK-3620,PAYLOAD,2023-04-06 06:52:12,15.0885631,0.0001187,53.216,95.3685,95.3342,264.7786,0.00015729,2.217e-05,0.0,0 STARLINK-3620,1 51775U 22017H   23096.28625446  .00002217  00000-0  15729-3 0  9993,2 51775  53.2160  95.3685 0001187  95.3342 264.7786 15.08856310 62761,6917.831,95.437,540.517,538.874,0.0
51775.0,STARLINK-3620,PAYLOAD,2023-04-06 11:38:21,15.08859085,0.0001127,53.2148,94.4752,100.3214,259.7905,7.022e-05,8.3e-06,0.0,0 STARLINK-3620,1 51775U 22017H   23096.48497045  .00000830  00000-0  70220-4 0  9994,2 51775  53.2148  94.4752 0001127 100.3214 259.7905 15.08859085 61343,6917.822,95.436,540.467,538.907,0.0
51775.0,STARLINK-3620,PAYLOAD,2023-04-06 16:24:31,15.0884334,0.0001854,53.2162,93.5845,98.5343,261.5859,-0.00017563,-3.083e-05,0.0,0 STARLINK-3620,1 51775U 22017H   23096.68369855 -.00003083  00000-0 -17563-3 0  9998,2 51775  53.2162  93.5845 0001854  98.5343 261.5859 15.08843340 62820,6917.87,95.437,541.018,538.453,0.0
51775.0,STARLINK-3620,PAYLOAD,2023-04-07 08:18:22,15.08845505,0.0001348,53.2162,90.6114,103.8094,256.3048,-0.0001491,-2.66e-05,0.0,0 STARLINK-3620,1 51775U 22017H   23097.34609204 -.00002660  00000-0 -14910-3 0  9990,2 51775  53.2162  90.6114 0001348 103.8094 256.3048 15.08845505 61475,6917.864,95.437,540.661,538.796,0.0
51775.0,STARLINK-3620,PAYLOAD,2023-04-08 04:58:23,15.0884557,0.000111,53.2152,86.7442,98.3795,261.7323,5.4442e-05,5.79e-06,0.0,0 STARLINK-3620,1 51775U 22017H   23098.20721129  .00000579  00000-0  54442-4 0  9997,2 51775  53.2152  86.7442 0001110  98.3795 261.7323 15.08845570 63051,6917.863,95.437,540.496,538.96,0.0
51775.0,STARLINK-3620,PAYLOAD,2023-04-08 11:19:55,15.08851904,0.0001124,53.215,85.5544,100.3564,259.7555,0.00015345,2.156e-05,0.0,0 STARLINK-3620,1 51775U 22017H   23098.47216769  .00002156  00000-0  15345-3 0  9996,2 51775  53.2150  85.5544 0001124 100.3564 259.7555 15.08851904 61647,6917.844,95.437,540.487,538.931,0.0
51775.0,STARLINK-3620,PAYLOAD,2023-04-09 07:59:56,15.08845505,0.0001271,53.216,81.6895,93.2803,266.8335,0.00019745,2.856e-05,0.0,0 STARLINK-3620,1 51775U 22017H   23099.33329287  .00002856  00000-0  19745-3 0  9997,2 51775  53.2160  81.6895 0001271  93.2803 266.8335 15.08845505 63224,6917.864,95.437,540.608,538.849,0.0
51775.0,STARLINK-3620,PAYLOAD,2023-04-09 11:10:42,15.08846166,0.0001199,53.2149,81.0929,87.3246,272.7884,0.00019507,2.819e-05,0.0,0 STARLINK-3620,1 51775U 22017H   23099.46577212  .00002819  00000-0  19507-3 0  9999,2 51775  53.2149  81.0929 0001199  87.3246 272.7884 15.08846166 61796,6917.862,95.437,540.556,538.897,0.0
51775.0,STARLINK-3620,PAYLOAD,2023-04-09 15:56:51,15.08840461,9.7e-06,53.2149,80.2008,169.1588,190.9406,5.8515e-05,6.44e-06,0.0,0 STARLINK-3620,1 51775U 22017H   23099.66449054  .00000644  00000-0  58515-4 0  9990,2 51775  53.2149  80.2008 0000097 169.1588 190.9406 15.08840461 61826,6917.879,95.438,539.811,539.677,0.0
51775.0,STARLINK-3620,PAYLOAD,2023-04-10 07:50:43,15.08843654,0.0001041,53.215,77.227,91.9661,268.1451,0.00019633,2.838e-05,0.0,0 STARLINK-3620,1 51775U 22017H   23100.32689654  .00002838  00000-0  19633-3 0  9992,2 51775  53.2150  77.2270 0001041  91.9661 268.1451 15.08843654 63376,6917.869,95.437,540.454,539.014,0.0
51775.0,STARLINK-3620,PAYLOAD,2023-04-10 15:47:39,15.08845989,0.0001148,53.2154,75.7406,85.521,274.5913,0.00039326,5.977e-05,0.0,0 STARLINK-3620,1 51775U 22017H   23100.65809756  .00005977  00000-0  39326-3 0  9993,2 51775  53.2154  75.7406 0001148  85.5210 274.5913 15.08845989 61972,6917.862,95.437,540.521,538.933,0.0
51775.0,STARLINK-3620,PAYLOAD,2023-04-11 07:41:30,15.08858295,0.0001204,53.2154,72.7664,84.7841,275.3289,0.00070155,0.000109,0.0,0 STARLINK-3620,1 51775U 22017H   23101.32049346  .00010900  00000-0  70155-3 0  9996,2 51775  53.2154  72.7664 0001204  84.7841 275.3289 15.08858295 62070,6917.824,95.436,540.522,538.857,0.0
51775.0,STARLINK-3620,PAYLOAD,2023-04-12 04:21:31,15.08845824,0.0001196,53.2161,68.9001,100.4636,259.6491,0.00022548,3.303e-05,0.0,0 STARLINK-3620,1 51775U 22017H   23102.18161544  .00003303  00000-0  22548-3 0  9998,2 51775  53.2161  68.9001 0001196 100.4636 259.6491 15.08845824 63657,6917.863,95.437,540.555,538.9,0.0
51775.0,STARLINK-3620,PAYLOAD,2023-04-13 04:12:19,15.08839544,0.0001029,53.2166,64.4434,96.236,263.8749,0.00010763,1.426e-05,0.0,0 STARLINK-3620,1 51775U 22017H   23103.17521999  .00001426  00000-0  10763-3 0  9992,2 51775  53.2166  64.4434 0001029  96.2360 263.8749 15.08839544 62355,6917.882,95.438,540.459,539.035,0.0
51775.0,STARLINK-3620,PAYLOAD,2023-04-14 07:13:51,15.08851824,0.0001205,53.2159,59.3864,105.7945,254.318,0.00035033,5.294e-05,0.0,0 STARLINK-3620,1 51775U 22017H   23104.30129584  .00005294  00000-0  35033-3 0  9996,2 51775  53.2159  59.3864 0001205 105.7945 254.3180 15.08851824 62526,6917.844,95.437,540.543,538.876,0.0
51775.0,STARLINK-3620,PAYLOAD,2023-04-15 00:43:06,15.08841585,0.0001246,53.215,56.1108,97.4424,262.671,0.00014645,2.044e-05,0.0,0 STARLINK-3620,1 51775U 22017H   23105.02994051  .00002044  00000-0  14645-3 0  9991,2 51775  53.2150  56.1108 0001246  97.4424 262.6710 15.08841585 64084,6917.876,95.437,540.603,538.879,0.0
51775.0,STARLINK-3620,PAYLOAD,2023-04-15 03:53:52,15.08849237,0.0001436,53.2166,55.5226,114.352,245.7622,0.000228,3.343e-05,0.0,0 STARLINK-3620,1 51775U 22017H   23105.16241730  .00003343  00000-0  22800-3 0  9990,2 51775  53.2166  55.5226 0001436 114.3520 245.7622 15.08849237 64101,6917.852,95.437,540.711,538.724,0.0
51775.0,STARLINK-3620,PAYLOAD,2023-04-16 05:20:03,15.08844546,0.0001287,53.2159,50.7612,94.8175,265.2964,1.8604e-05,8e-08,0.0,0 STARLINK-3620,1 51775U 22017H   23106.22225827  .00000008  00000-0  18604-4 0  9990,2 51775  53.2159  50.7612 0001287  94.8175 265.2964 15.08844546 64262,6917.866,95.437,540.622,538.841,0.0
